[
	{
		"Corp": "00001",
		"Location": "Brownsville 01",
		"Street Address": "924 E. Elizabeth",
		"City": "Brownsville",
		"State": "TX",
		"Zip": "78520",
		"Region": "BORDER-M",
		"Lat": "25.9029102",
		"Long": "-97.5001602"
	},
	{
		"Corp": "00002",
		"Location": "Laredo 01",
		"Street Address": "1002 Farragut",
		"City": "Laredo",
		"State": "TX",
		"Zip": "78040",
		"Region": "BORDER-M",
		"Lat": "27.5057106",
		"Long": "-99.5057221"
	},
	{
		"Corp": "00006",
		"Location": "Stephenville",
		"Street Address": "2150 W. Washington",
		"City": "Stephenville",
		"State": "TX",
		"Zip": "76401",
		"Region": "CTEX-R",
		"Lat": "32.2100105",
		"Long": "-98.2251663"
	},
	{
		"Corp": "00009",
		"Location": "Donna",
		"Street Address": "813 Miller",
		"City": "Donna",
		"State": "TX",
		"Zip": "78537",
		"Region": "BORDER-R",
		"Lat": "26.1693592",
		"Long": "-98.0553436"
	},
	{
		"Corp": "00011",
		"Location": "Waco 06",
		"Street Address": "1110 S. Valley Mills",
		"City": "Waco",
		"State": "TX",
		"Zip": "76711",
		"Region": "CTEX-M",
		"Lat": "31.5261307",
		"Long": "-97.1485367"
	},
	{
		"Corp": "00012",
		"Location": "Beaumont 04",
		"Street Address": "1180 S. 11th St.",
		"City": "Beaumont",
		"State": "TX",
		"Zip": "77701",
		"Region": "HOU-M",
		"Lat": "30.0649109",
		"Long": "-94.1293716"
	},
	{
		"Corp": "00013",
		"Location": "Rio Grande City",
		"Street Address": "6583 Ridge Ave",
		"City": "Rio Grande",
		"State": "TX",
		"Zip": "78582",
		"Region": "BORDER-R",
		"Lat": "26.3725491",
		"Long": "-98.8004532"
	},
	{
		"Corp": "00014",
		"Location": "Kyle",
		"Street Address": "FM North 1626 and IH 35 South",
		"City": "Kyle",
		"State": "TX",
		"Zip": "78640",
		"Region": "CTEX-R",
		"Lat": "30.0127106",
		"Long": "-97.8602066"
	},
	{
		"Corp": "00015",
		"Location": "Huntsville",
		"Street Address": "909 S. Sam Houston",
		"City": "Huntsville",
		"State": "TX",
		"Zip": "77320",
		"Region": "HOU-R",
		"Lat": "30.7262592",
		"Long": "-95.5514069"
	},
	{
		"Corp": "00016",
		"Location": "Burleson",
		"Street Address": "165 N.W. John Jones Dr.",
		"City": "Burleson",
		"State": "TX",
		"Zip": "76028",
		"Region": "CTEX-M",
		"Lat": "32.5213814",
		"Long": "-97.3492127"
	},
	{
		"Corp": "00017",
		"Location": "Angleton",
		"Street Address": "1239 E. Mulberry",
		"City": "Angleton",
		"State": "TX",
		"Zip": "77515",
		"Region": "HOU-R",
		"Lat": "29.1712799",
		"Long": "-95.4172363"
	},
	{
		"Corp": "00018",
		"Location": "Corpus Christi 01",
		"Street Address": "4444 Kostoryz",
		"City": "Corpus Christi",
		"State": "TX",
		"Zip": "78415",
		"Region": "Gulf-M",
		"Lat": "27.7388802",
		"Long": "-97.4064865"
	},
	{
		"Corp": "00020",
		"Location": "Houston 53",
		"Street Address": "24224 Northwest Freeway",
		"City": "Cypress",
		"State": "TX",
		"Zip": "77429",
		"Region": "HOU-M",
		"Lat": "29.9554291",
		"Long": "-95.6734085"
	},
	{
		"Corp": "00021",
		"Location": "Deer Park",
		"Street Address": "3601 Center",
		"City": "Deer Park",
		"State": "TX",
		"Zip": "77536",
		"Region": "HOU-R",
		"Lat": "29.6791401",
		"Long": "-95.1230927"
	},
	{
		"Corp": "00022",
		"Location": "Robstown",
		"Street Address": "308 E. Main",
		"City": "Robstown",
		"State": "TX",
		"Zip": "78380",
		"Region": "Gulf-R",
		"Lat": "27.7897091",
		"Long": "-97.6661606"
	},
	{
		"Corp": "00024",
		"Location": "Austin 27",
		"Street Address": "11521 North FM 620",
		"City": "Austin",
		"State": "TX",
		"Zip": "78726",
		"Region": "CTEX-M",
		"Lat": "30.4544792",
		"Long": "-97.8267288"
	},
	{
		"Corp": "00025",
		"Location": "Floresville",
		"Street Address": "909 10th Street",
		"City": "Floresville",
		"State": "TX",
		"Zip": "78114",
		"Region": "SaWest-R",
		"Lat": "29.1459694",
		"Long": "-98.1588821"
	},
	{
		"Corp": "00026",
		"Location": "San Antonio 13",
		"Street Address": "4100 S. New Braunfels Ave.",
		"City": "San Antonio",
		"State": "TX",
		"Zip": "78223",
		"Region": "SaWest-M",
		"Lat": "29.37883",
		"Long": "-98.4610367"
	},
	{
		"Corp": "00028",
		"Location": "Bay Colony",
		"Street Address": "2955 Gulf Freeway South",
		"City": "League City",
		"State": "TX",
		"Zip": "77573",
		"Region": "HOU-R",
		"Lat": "29.4689598",
		"Long": "-95.0925369"
	},
	{
		"Corp": "00029",
		"Location": "Austin 29",
		"Street Address": "701 Capital of Texas Highway",
		"City": "West Lake Hills",
		"State": "TX",
		"Zip": "0",
		"Region": "CTEX-M",
		"Lat": "30.2915993",
		"Long": "-97.8281937"
	},
	{
		"Corp": "00031",
		"Location": "Austin 05",
		"Street Address": "12860 Research Blvd",
		"City": "Austin",
		"State": "TX",
		"Zip": "78732",
		"Region": "CTEX-M",
		"Lat": "30.3549995",
		"Long": "-97.9073029"
	},
	{
		"Corp": "00034",
		"Location": "Round Rock 01",
		"Street Address": "3750 Gattis School Road",
		"City": "Round Rock",
		"State": "TX",
		"Zip": "0",
		"Region": "CTEX-R",
		"Lat": "30.4972992",
		"Long": "-97.6150131"
	},
	{
		"Corp": "00035",
		"Location": "Orange",
		"Street Address": "2424 16th St.",
		"City": "Orange",
		"State": "TX",
		"Zip": "77630",
		"Region": "HOU-R",
		"Lat": "30.1147404",
		"Long": "-93.7474213"
	},
	{
		"Corp": "00038",
		"Location": "San Juan",
		"Street Address": "901 West Expressway",
		"City": "San Juan",
		"State": "TX",
		"Zip": "78589",
		"Region": "BORDER-R",
		"Lat": "26.2015991",
		"Long": "-98.1589584"
	},
	{
		"Corp": "00043",
		"Location": "San Antonio 04",
		"Street Address": "1601 Nogalitos",
		"City": "San Antonio",
		"State": "TX",
		"Zip": "78204",
		"Region": "SaWest-M",
		"Lat": "29.3979702",
		"Long": "-98.5139465"
	},
	{
		"Corp": "00045",
		"Location": "Austin 08",
		"Street Address": "2400 S. Congress",
		"City": "Austin",
		"State": "TX",
		"Zip": "78704",
		"Region": "CTEX-M",
		"Lat": "30.2387791",
		"Long": "-97.7536469"
	},
	{
		"Corp": "00048",
		"Location": "Beaumont 05",
		"Street Address": "Dowlen Rd. & Delaware St.",
		"City": "Beaumont",
		"State": "TX",
		"Zip": "77706",
		"Region": "HOU-M",
		"Lat": "30.1047192",
		"Long": "-94.1685104"
	},
	{
		"Corp": "00051",
		"Location": "Big Spring",
		"Street Address": "2000 S. Gregg",
		"City": "Big Spring",
		"State": "TX",
		"Zip": "79720",
		"Region": "SaWest-R",
		"Lat": "32.2350502",
		"Long": "-101.4720993"
	},
	{
		"Corp": "00052",
		"Location": "San Angelo",
		"Street Address": "3301 Sherwood Way",
		"City": "San Angelo",
		"State": "TX",
		"Zip": "76901",
		"Region": "SaWest-R",
		"Lat": "31.4452496",
		"Long": "-100.4797974"
	},
	{
		"Corp": "00053",
		"Location": "Groves",
		"Street Address": "5000 32nd St.",
		"City": "Groves",
		"State": "TX",
		"Zip": "77619",
		"Region": "HOU-R",
		"Lat": "29.9292698",
		"Long": "-93.9240799"
	},
	{
		"Corp": "00054",
		"Location": "Black Hawk",
		"Street Address": "Black Hawk & Beltway 8",
		"City": "Houston",
		"State": "TX",
		"Zip": "77024",
		"Region": "HOU-M",
		"Lat": "29.7631798",
		"Long": "-95.5218811"
	},
	{
		"Corp": "00057",
		"Location": "Corpus Christi 18",
		"Street Address": "1145 Waldron Rd",
		"City": "Corpus Christi",
		"State": "TX",
		"Zip": "0",
		"Region": "Gulf-M",
		"Lat": "27.6679707",
		"Long": "-97.2827683"
	},
	{
		"Corp": "00061",
		"Location": "Austin 18",
		"Street Address": "4001 N. Lamar",
		"City": "Austin",
		"State": "TX",
		"Zip": "78756",
		"Region": "CMarket-M",
		"Lat": "30.3068905",
		"Long": "-97.7419434"
	},
	{
		"Corp": "00062",
		"Location": "Bryan 01",
		"Street Address": "1905 Old Hearne Rd.",
		"City": "Bryan",
		"State": "TX",
		"Zip": "77803",
		"Region": "HOU-R",
		"Lat": "30.6886406",
		"Long": "-96.3739777"
	},
	{
		"Corp": "00063",
		"Location": "Pearland",
		"Street Address": "2805 Business Center Drive",
		"City": "Pearland",
		"State": "TX",
		"Zip": "0",
		"Region": "HOU-R",
		"Lat": "29.5704403",
		"Long": "-95.390419"
	},
	{
		"Corp": "00064",
		"Location": "Waco 04",
		"Street Address": "3801 N. 19th St.",
		"City": "Waco",
		"State": "TX",
		"Zip": "76708",
		"Region": "CTEX-M",
		"Lat": "31.5803204",
		"Long": "-97.1726532"
	},
	{
		"Corp": "00066",
		"Location": "Mi Tienda",
		"Street Address": "1630 Spencer Highway",
		"City": "South Houston",
		"State": "TX",
		"Zip": "77587",
		"Region": "HOU-M",
		"Lat": "29.6647091",
		"Long": "-95.2092819"
	},
	{
		"Corp": "00068",
		"Location": "Austin 28",
		"Street Address": "5800 West Slaughter Lane",
		"City": "Austin",
		"State": "TX",
		"Zip": "78749",
		"Region": "CTEX-M",
		"Lat": "30.2005196",
		"Long": "-97.8767929"
	},
	{
		"Corp": "00069",
		"Location": "Corpus Christi 04",
		"Street Address": "5313 Saratoga",
		"City": "Corpus Christi",
		"State": "TX",
		"Zip": "78413",
		"Region": "Gulf-M",
		"Lat": "27.6880093",
		"Long": "-97.38922882"
	},
	{
		"Corp": "00070",
		"Location": "Abilene",
		"Street Address": "1345 Barrow",
		"City": "Abilene",
		"State": "TX",
		"Zip": "79605",
		"Region": "SaWest-R",
		"Lat": "32.4334297",
		"Long": "-99.7594833"
	},
	{
		"Corp": "00071",
		"Location": "Temple 01",
		"Street Address": "1314 W. Adams",
		"City": "Temple",
		"State": "TX",
		"Zip": "76504",
		"Region": "CTEX-R",
		"Lat": "31.1013699",
		"Long": "-97.3539963"
	},
	{
		"Corp": "00072",
		"Location": "Killeen 01",
		"Street Address": "809 N. Gray",
		"City": "Killeen",
		"State": "TX",
		"Zip": "76541",
		"Region": "CTEX-R",
		"Lat": "31.1245804",
		"Long": "-97.72646332"
	},
	{
		"Corp": "00073",
		"Location": "Beaumont 01",
		"Street Address": "3930 E. Lucas",
		"City": "Beaumont",
		"State": "TX",
		"Zip": "77708",
		"Region": "HOU-M",
		"Lat": "30.1221199",
		"Long": "-94.1406632"
	},
	{
		"Corp": "00074",
		"Location": "New Braunfels 02",
		"Street Address": "1655 Highway 46 West",
		"City": "New Braunfels",
		"State": "TX",
		"Zip": "78132",
		"Region": "HOU-M",
		"Lat": "29.7154865",
		"Long": "-98.158905"
	},
	{
		"Corp": "00084",
		"Location": "San Antonio 36",
		"Street Address": "6818 South Zarzamora",
		"City": "San Antonio",
		"State": "TX",
		"Zip": "78224",
		"Region": "SaWest-M",
		"Lat": "29.3602696",
		"Long": "-98.5339432"
	},
	{
		"Corp": "00085",
		"Location": "San Antonio 41",
		"Street Address": "10718 Potranco",
		"City": "San Antonio",
		"State": "TX",
		"Zip": "78245",
		"Region": "SaWest-M",
		"Lat": "29.4356403",
		"Long": "-98.7006989"
	},
	{
		"Corp": "00086",
		"Location": "Port Arthur",
		"Street Address": "3401 Gulfway Dr.",
		"City": "Port Arthur",
		"State": "TX",
		"Zip": "77642",
		"Region": "HOU-R",
		"Lat": "29.9047909",
		"Long": "-93.9235535"
	},
	{
		"Corp": "00087",
		"Location": "Waco 03",
		"Street Address": "1102 Speight St.",
		"City": "Waco",
		"State": "TX",
		"Zip": "76706",
		"Region": "CTEX-M",
		"Lat": "31.5406208",
		"Long": "-97.1238174"
	},
	{
		"Corp": "00088",
		"Location": "Del Rio 01",
		"Street Address": "500 Pecan",
		"City": "Del Rio",
		"State": "TX",
		"Zip": "78840",
		"Region": "BORDER-R",
		"Lat": "29.3586292",
		"Long": "-100.8977966"
	},
	{
		"Corp": "00089",
		"Location": "Kerrville",
		"Street Address": "300 Main",
		"City": "Kerrville",
		"State": "TX",
		"Zip": "78028",
		"Region": "SaWest-R",
		"Lat": "30.0510407",
		"Long": "-99.1446304"
	},
	{
		"Corp": "00090",
		"Location": "Central Market Kitchen",
		"Street Address": "3131 Campbell Rd.",
		"City": "Houston",
		"State": "TX",
		"Zip": "77080",
		"Region": "Admin",
		"Lat": "29.8213806",
		"Long": "-95.5264435"
	},
	{
		"Corp": "00091",
		"Location": "Austin 12",
		"Street Address": "2508 East Riverside Drive",
		"City": "Austin",
		"State": "TX",
		"Zip": "78741",
		"Region": "Admin",
		"Lat": "30.2347202",
		"Long": "-97.7235489"
	},
	{
		"Corp": "00092",
		"Location": "Victoria 03",
		"Street Address": "6106 N. Navarro",
		"City": "Victoria",
		"State": "TX",
		"Zip": "77904",
		"Region": "Gulf-R",
		"Lat": "28.8527603",
		"Long": "-96.9970932"
	},
	{
		"Corp": "00094",
		"Location": "Mission 03",
		"Street Address": "2409 East Expressway 83",
		"City": "Mission",
		"State": "TX",
		"Zip": "78572",
		"Region": "BORDER-R",
		"Lat": "26.1964607",
		"Long": "-98.2900467"
	},
	{
		"Corp": "00095",
		"Location": "Laredo 08",
		"Street Address": "1911 East Bob Bullock",
		"City": "Laredo",
		"State": "TX",
		"Zip": "0",
		"Region": "BORDER-M",
		"Lat": "27.5131207",
		"Long": "-99.4500198"
	},
	{
		"Corp": "00096",
		"Location": "Austin 04",
		"Street Address": "7025 Village Center",
		"City": "Austin",
		"State": "TX",
		"Zip": "78731",
		"Region": "CTEX-M",
		"Lat": "30.3524399",
		"Long": "-97.7562332"
	},
	{
		"Corp": "00099",
		"Location": "Houston 52",
		"Street Address": "10919 Louetta Rd",
		"City": "Houston",
		"State": "TX",
		"Zip": "0",
		"Region": "HOU-R",
		"Lat": "29.9966202",
		"Long": "-95.5765915"
	},
	{
		"Corp": "00102",
		"Location": "San Antonio 31",
		"Street Address": "8503 NW Military Hwy.",
		"City": "San Antonio",
		"State": "TX",
		"Zip": "78230",
		"Region": "SaWest-M",
		"Lat": "29.5633793",
		"Long": "-98.5377197"
	},
	{
		"Corp": "00104",
		"Location": "Marlin",
		"Street Address": "435 Live Oak",
		"City": "Marlin",
		"State": "TX",
		"Zip": "76661",
		"Region": "CTEX-R",
		"Lat": "31.3063602",
		"Long": "-96.8935013"
	},
	{
		"Corp": "00106",
		"Location": "San Antonio 22",
		"Street Address": "1015 S. W. W. White",
		"City": "San Antonio",
		"State": "TX",
		"Zip": "78220",
		"Region": "SaWest-M",
		"Lat": "29.4148407",
		"Long": "-98.4055481"
	},
	{
		"Corp": "00107",
		"Location": "Ennis",
		"Street Address": "101 S. Clay",
		"City": "Ennis",
		"State": "TX",
		"Zip": "75119",
		"Region": "CTEX-R",
		"Lat": "32.3250313",
		"Long": "-96.632637"
	},
	{
		"Corp": "00108",
		"Location": "San Antonio 45",
		"Street Address": "20935 US Highway 281 North",
		"City": "San Antonio",
		"State": "TX",
		"Zip": "78258",
		"Region": "SaWest-M",
		"Lat": "29.6401196",
		"Long": "-98.4550934"
	},
	{
		"Corp": "00109",
		"Location": "Houston 54",
		"Street Address": "9710 Katy Freeway",
		"City": "Houston",
		"State": "TX",
		"Zip": "77055",
		"Region": "HOU-M",
		"Lat": "29.7852497",
		"Long": "-95.5323105"
	},
	{
		"Corp": "00110",
		"Location": "Houston 55",
		"Street Address": "8900 HWY 6",
		"City": "Missouri City",
		"State": "TX",
		"Zip": "77459",
		"Region": "HOU-M",
		"Lat": "29.5392799",
		"Long": "-95.5354538"
	},
	{
		"Corp": "00111",
		"Location": "San Antonio 36 Convenience Store",
		"Street Address": "7004 S. Zarzamora",
		"City": "San Antonio",
		"State": "TX",
		"Zip": "78224",
		"Region": "SaWest-M",
		"Lat": "29.3579006",
		"Long": "-98.5339432"
	},
	{
		"Corp": "00115",
		"Location": "Sinton",
		"Street Address": "106 S. San Patricio",
		"City": "Sinton",
		"State": "TX",
		"Zip": "78387",
		"Region": "Gulf-R",
		"Lat": "28.0365601",
		"Long": "-97.5165787"
	},
	{
		"Corp": "00116",
		"Location": "Lumberton",
		"Street Address": "1930 Hwy. 96 S.",
		"City": "Lumberton",
		"State": "TX",
		"Zip": "77657",
		"Region": "HOU-R",
		"Lat": "30.2856503",
		"Long": "-94.192337"
	},
	{
		"Corp": "00117",
		"Location": "Crystal City",
		"Street Address": "514 E. Zavala",
		"City": "Crystal City",
		"State": "TX",
		"Zip": "78839",
		"Region": "BORDER-R",
		"Lat": "28.6813202",
		"Long": "-99.8302078"
	},
	{
		"Corp": "00121",
		"Location": "San Antonio 09 Convenience Store",
		"Street Address": "735 SW Military Dr.",
		"City": "San Antonio",
		"State": "TX",
		"Zip": "78221",
		"Region": "SaWest-M",
		"Lat": "29.3568306",
		"Long": "-98.5028534"
	},
	{
		"Corp": "00136",
		"Location": "Harlingen 04",
		"Street Address": "1213 S. Commerce",
		"City": "Harlingen",
		"State": "TX",
		"Zip": "78550",
		"Region": "BORDER-R",
		"Lat": "26.1815395",
		"Long": "-97.6854324"
	},
	{
		"Corp": "00138",
		"Location": "Elsa",
		"Street Address": "101 N Crockett",
		"City": "Elsa",
		"State": "TX",
		"Zip": "78543",
		"Region": "BORDER-R",
		"Lat": "26.2928906",
		"Long": "-97.9932404"
	},
	{
		"Corp": "00139",
		"Location": "Corpus Christi 12",
		"Street Address": "5801 Weber Rd.",
		"City": "Corpus Christi",
		"State": "TX",
		"Zip": "78413",
		"Region": "Gulf-M",
		"Lat": "27.7111893",
		"Long": "-97.405159"
	},
	{
		"Corp": "00141",
		"Location": "Carrizo Springs",
		"Street Address": "400 N. 5th St.",
		"City": "Carrizo Spr",
		"State": "TX",
		"Zip": "78834",
		"Region": "BORDER-R",
		"Lat": "28.5240307",
		"Long": "-99.8596191"
	},
	{
		"Corp": "00155",
		"Location": "Kenedy",
		"Street Address": "805 W. Main St.",
		"City": "Kenedy",
		"State": "TX",
		"Zip": "78119",
		"Region": "Gulf-R",
		"Lat": "28.8166294",
		"Long": "-97.8552475"
	},
	{
		"Corp": "00158",
		"Location": "Pearsall",
		"Street Address": "205 N. Oak",
		"City": "Pearsall",
		"State": "TX",
		"Zip": "78061",
		"Region": "BORDER-R",
		"Lat": "28.8927403",
		"Long": "-99.0950928"
	},
	{
		"Corp": "00160",
		"Location": "Mathis",
		"Street Address": "601 E. San Patricio",
		"City": "Mathis",
		"State": "TX",
		"Zip": "78368",
		"Region": "Gulf-R",
		"Lat": "28.0923595",
		"Long": "-97.8258667"
	},
	{
		"Corp": "00161",
		"Location": "Austin 13",
		"Street Address": "7112 Ed Bluestein",
		"City": "Austin",
		"State": "TX",
		"Zip": "78723",
		"Region": "CTEX-M",
		"Lat": "30.3209801",
		"Long": "-97.6677017"
	},
	{
		"Corp": "00164",
		"Location": "San Antonio 35",
		"Street Address": "15000 San Pedro Ave.",
		"City": "San Antonio",
		"State": "TX",
		"Zip": "78232",
		"Region": "SaWest-M",
		"Lat": "29.5782108",
		"Long": "-98.4771576"
	},
	{
		"Corp": "00168",
		"Location": "Harlingen 03",
		"Street Address": "1103 Morgan",
		"City": "Harlingen",
		"State": "TX",
		"Zip": "78550",
		"Region": "BORDER-R",
		"Lat": "26.2033196",
		"Long": "-97.6763535"
	},
	{
		"Corp": "00171",
		"Location": "Ingleside",
		"Street Address": "2616 W. Hwy. 361",
		"City": "Ingleside",
		"State": "TX",
		"Zip": "78362",
		"Region": "Gulf-R",
		"Lat": "27.8815594",
		"Long": "-97.2094727"
	},
	{
		"Corp": "00172",
		"Location": "Edinburgh 01",
		"Street Address": "1212 S. Closner",
		"City": "Edinburg",
		"State": "TX",
		"Zip": "78539",
		"Region": "BORDER-R",
		"Lat": "26.29035",
		"Long": "-98.164238"
	},
	{
		"Corp": "00173",
		"Location": "Seguin",
		"Street Address": "1368 E. Court",
		"City": "Seguin",
		"State": "TX",
		"Zip": "78155",
		"Region": "SaWest-R",
		"Lat": "29.5692291",
		"Long": "-97.9425964"
	},
	{
		"Corp": "00178",
		"Location": "San Antonio 14",
		"Street Address": "6839 San Pedro Ave.",
		"City": "San Antonio",
		"State": "TX",
		"Zip": "78216",
		"Region": "SaWest-M",
		"Lat": "29.5032406",
		"Long": "-98.4993973"
	},
	{
		"Corp": "00182",
		"Location": "Temple 02",
		"Street Address": "3002 S. 31st. St.",
		"City": "Temple",
		"State": "TX",
		"Zip": "76502",
		"Region": "CTEX-R",
		"Lat": "31.0707493",
		"Long": "-97.369072"
	},
	{
		"Corp": "00183",
		"Location": "Austin 15",
		"Street Address": "9414 N. Lamar",
		"City": "Austin",
		"State": "TX",
		"Zip": "78753",
		"Region": "CTEX-M",
		"Lat": "30.3635292",
		"Long": "-97.6968308"
	},
	{
		"Corp": "00184",
		"Location": "Corpus Christi 05",
		"Street Address": "11100 Leopard",
		"City": "Corpus Christi",
		"State": "TX",
		"Zip": "78410",
		"Region": "Gulf-M",
		"Lat": "27.8451099",
		"Long": "-97.5846634"
	},
	{
		"Corp": "00186",
		"Location": "Laredo 05",
		"Street Address": "2310 Saunders",
		"City": "Laredo",
		"State": "TX",
		"Zip": "78040",
		"Region": "BORDER-M",
		"Lat": "27.5169201",
		"Long": "-99.4949265"
	},
	{
		"Corp": "00189",
		"Location": "San Antonio 10",
		"Street Address": "2130 Culebra",
		"City": "San Antonio",
		"State": "TX",
		"Zip": "78228",
		"Region": "SaWest-M",
		"Lat": "29.4467297",
		"Long": "-98.5410996"
	},
	{
		"Corp": "00191",
		"Location": "San Antonio 02",
		"Street Address": "4821 Broadway",
		"City": "San Antonio",
		"State": "TX",
		"Zip": "78209",
		"Region": "CMarket-M",
		"Lat": "29.4703808",
		"Long": "-98.4635315"
	},
	{
		"Corp": "00195",
		"Location": "San Antonio 38",
		"Street Address": "11551 West Ave.",
		"City": "San Antonio",
		"State": "TX",
		"Zip": "78213",
		"Region": "SaWest-M",
		"Lat": "29.5450993",
		"Long": "-98.5103073"
	},
	{
		"Corp": "00197",
		"Location": "Belton",
		"Street Address": "525 N. Main",
		"City": "Belton",
		"State": "TX",
		"Zip": "76513",
		"Region": "CTEX-R",
		"Lat": "31.0616303",
		"Long": "-97.4618073"
	},
	{
		"Corp": "00200",
		"Location": "Falfurrias",
		"Street Address": "700 S. St. Mary",
		"City": "Falfurrias",
		"State": "TX",
		"Zip": "78355",
		"Region": "Gulf-R",
		"Lat": "27.2207298",
		"Long": "-98.1450729"
	},
	{
		"Corp": "00202",
		"Location": "Austin 09",
		"Street Address": "5808 Burnet rd.",
		"City": "Austin",
		"State": "TX",
		"Zip": "78756",
		"Region": "CTEX-M",
		"Lat": "30.3337498",
		"Long": "-97.7400436"
	},
	{
		"Corp": "00205",
		"Location": "San Antonio 16",
		"Street Address": "721 Castroville Rd.",
		"City": "San Antonio",
		"State": "TX",
		"Zip": "78237",
		"Region": "SaWest-M",
		"Lat": "29.4172993",
		"Long": "-98.5512466"
	},
	{
		"Corp": "00207",
		"Location": "Laredo 02",
		"Street Address": "1302 Guadalupe",
		"City": "Laredo",
		"State": "TX",
		"Zip": "78040",
		"Region": "BORDER-M",
		"Lat": "27.5066509",
		"Long": "-99.4833832"
	},
	{
		"Corp": "00208",
		"Location": "Pharr",
		"Street Address": "1300 E. Business Hwy",
		"City": "Pharr",
		"State": "TX",
		"Zip": "78577",
		"Region": "BORDER-R",
		"Lat": "26.1930695",
		"Long": "-98.1730728"
	},
	{
		"Corp": "00210",
		"Location": "Corpus Christi 06",
		"Street Address": "4320 S. Alameda",
		"City": "Corpus Christi",
		"State": "TX",
		"Zip": "78412",
		"Region": "Gulf-M",
		"Lat": "27.7300396",
		"Long": "-97.3718491"
	},
	{
		"Corp": "00211",
		"Location": "San Antonio 07",
		"Street Address": "415 N. New Braunfels",
		"City": "San Antonio",
		"State": "TX",
		"Zip": "78202",
		"Region": "SaWest-M",
		"Lat": "29.4242897",
		"Long": "-98.461319"
	},
	{
		"Corp": "00212",
		"Location": "McAllen 04",
		"Street Address": "3200 N. Tenth St.",
		"City": "Mcallen",
		"State": "TX",
		"Zip": "78501",
		"Region": "BORDER-M",
		"Lat": "26.2323208",
		"Long": "-98.2249985"
	},
	{
		"Corp": "00217",
		"Location": "McAllen 03",
		"Street Address": "900 S. Tenth St.",
		"City": "Mcallen",
		"State": "TX",
		"Zip": "78501",
		"Region": "BORDER-M",
		"Lat": "26.1952095",
		"Long": "-98.2315826"
	},
	{
		"Corp": "00218",
		"Location": "Austin 06",
		"Street Address": "12407 MOPAC Expwy N.",
		"City": "Austin",
		"State": "TX",
		"Zip": "78758",
		"Region": "CTEX-M",
		"Lat": "30.4155598",
		"Long": "-97.705368"
	},
	{
		"Corp": "00223",
		"Location": "Alice",
		"Street Address": "1115 E. Main",
		"City": "Alice",
		"State": "TX",
		"Zip": "78332",
		"Region": "Gulf-R",
		"Lat": "27.7514896",
		"Long": "-98.0639114"
	},
	{
		"Corp": "00224",
		"Location": "San Antonio 25",
		"Street Address": "7951 Guilbeau",
		"City": "San Antonio",
		"State": "TX",
		"Zip": "78250",
		"Region": "SaWest-M",
		"Lat": "29.5191803",
		"Long": "-98.6417465"
	},
	{
		"Corp": "00225",
		"Location": "Austin 10",
		"Street Address": "7010 HWY 71 WEST",
		"City": "Austin",
		"State": "TX",
		"Zip": "78735",
		"Region": "CTEX-M",
		"Lat": "30.2352009",
		"Long": "-97.8765335"
	},
	{
		"Corp": "00226",
		"Location": "Mission",
		"Street Address": "820 S. Conway",
		"City": "Mission",
		"State": "TX",
		"Zip": "78572",
		"Region": "BORDER-R",
		"Lat": "26.2002602",
		"Long": "-98.3285904"
	},
	{
		"Corp": "00227",
		"Location": "Austin 11",
		"Street Address": "2110 New Slaughter Lane",
		"City": "Austin",
		"State": "TX",
		"Zip": "78748",
		"Region": "CTEX-M",
		"Lat": "30.17383",
		"Long": "-97.8251419"
	},
	{
		"Corp": "00229",
		"Location": "Austin 02",
		"Street Address": "6607 S. IH 35",
		"City": "Austin",
		"State": "TX",
		"Zip": "78744",
		"Region": "CTEX-M",
		"Lat": "30.1911793",
		"Long": "-97.7692413"
	},
	{
		"Corp": "00230",
		"Location": "San Antonio 33",
		"Street Address": "14087 O'Connor Rd.",
		"City": "San Antonio",
		"State": "TX",
		"Zip": "78247",
		"Region": "SaWest-M",
		"Lat": "29.5700493",
		"Long": "-98.38591"
	},
	{
		"Corp": "00231",
		"Location": "Weslaco 01",
		"Street Address": "1004 N. Texas",
		"City": "Weslaco",
		"State": "TX",
		"Zip": "78596",
		"Region": "BORDER-R",
		"Lat": "26.17099",
		"Long": "-97.9907608"
	},
	{
		"Corp": "00232",
		"Location": "Boerne",
		"Street Address": "420 W. Bandera",
		"City": "Boerne",
		"State": "TX",
		"Zip": "78006",
		"Region": "SaWest-R",
		"Lat": "29.7805691",
		"Long": "-98.73526"
	},
	{
		"Corp": "00233",
		"Location": "Wharton",
		"Street Address": "1616 N. Alabama",
		"City": "Wharton",
		"State": "TX",
		"Zip": "77488",
		"Region": "HOU-R",
		"Lat": "29.3228207",
		"Long": "-96.0843582"
	},
	{
		"Corp": "00234",
		"Location": "Refugio",
		"Street Address": "206 S. Alamo",
		"City": "Refugio",
		"State": "TX",
		"Zip": "78377",
		"Region": "Gulf-R",
		"Lat": "28.3039799",
		"Long": "-97.2752838"
	},
	{
		"Corp": "00235",
		"Location": "San Antonio 37",
		"Street Address": "9255 Grissom Rd.",
		"City": "San Antonio",
		"State": "TX",
		"Zip": "78251",
		"Region": "SaWest-M",
		"Lat": "29.4843292",
		"Long": "-98.665947"
	},
	{
		"Corp": "00236",
		"Location": "Austin 07",
		"Street Address": "1434 Wells Branch PARKWAY",
		"City": "Austin",
		"State": "TX",
		"Zip": "78660",
		"Region": "CTEX-R",
		"Lat": "30.4356804",
		"Long": "-97.6549988"
	},
	{
		"Corp": "00237",
		"Location": "Georgetown 01",
		"Street Address": "1100 S. IH 35",
		"City": "Georgetown",
		"State": "TX",
		"Zip": "78626",
		"Region": "CTEX-R",
		"Lat": "30.6366291",
		"Long": "-97.6893997"
	},
	{
		"Corp": "00238",
		"Location": "Corsicana",
		"Street Address": "201 S. 15th St.",
		"City": "Corsicana",
		"State": "TX",
		"Zip": "75110",
		"Region": "CTEX-R",
		"Lat": "32.0900803",
		"Long": "-96.4683838"
	},
	{
		"Corp": "00243",
		"Location": "San Marcos 01",
		"Street Address": "641 W. Hopkins St.",
		"City": "San Marcos",
		"State": "TX",
		"Zip": "78666",
		"Region": "CTEX-R",
		"Lat": "29.8805409",
		"Long": "-97.9479065"
	},
	{
		"Corp": "00253",
		"Location": "Corpus Christi 03",
		"Street Address": "3500 Leopard",
		"City": "Corpus Christi",
		"State": "TX",
		"Zip": "78408",
		"Region": "Gulf-M",
		"Lat": "27.7968807",
		"Long": "-97.4276886"
	},
	{
		"Corp": "00255",
		"Location": "Laredo 03",
		"Street Address": "4801 San Dario",
		"City": "Laredo",
		"State": "TX",
		"Zip": "78041",
		"Region": "BORDER-M",
		"Lat": "27.5417805",
		"Long": "-99.5021362"
	},
	{
		"Corp": "00256",
		"Location": "Columbus",
		"Street Address": "2105 Milam",
		"City": "Columbus",
		"State": "TX",
		"Zip": "78934",
		"Region": "HOU-R",
		"Lat": "29.6947002",
		"Long": "-96.5402069"
	},
	{
		"Corp": "00257",
		"Location": "Cleveland",
		"Street Address": "100 Truly Plaza",
		"City": "Cleveland",
		"State": "TX",
		"Zip": "77327",
		"Region": "HOU-R",
		"Lat": "30.3369999",
		"Long": "-95.0937729"
	},
	{
		"Corp": "00262",
		"Location": "San Antonio 30",
		"Street Address": "5601 Bandera Rd.",
		"City": "San Antonio",
		"State": "TX",
		"Zip": "78238",
		"Region": "SaWest-M",
		"Lat": "29.4808006",
		"Long": "-98.5950928"
	},
	{
		"Corp": "00263",
		"Location": "Brownsville 03",
		"Street Address": "1628 Central Blvd.",
		"City": "Brownsville",
		"State": "TX",
		"Zip": "78520",
		"Region": "BORDER-M",
		"Lat": "25.9285202",
		"Long": "-97.5110092"
	},
	{
		"Corp": "00264",
		"Location": "Cleburne",
		"Street Address": "600 W. Henderson",
		"City": "Cleburne",
		"State": "TX",
		"Zip": "76033",
		"Region": "CTEX-R",
		"Lat": "32.3463707",
		"Long": "-97.3929367"
	},
	{
		"Corp": "00265",
		"Location": "Austin 14",
		"Street Address": "170 E. Whitestone",
		"City": "Austin",
		"State": "TX",
		"Zip": "78613",
		"Region": "CTEX-M",
		"Lat": "30.5210896",
		"Long": "-97.8284836"
	},
	{
		"Corp": "00267",
		"Location": "Texas City",
		"Street Address": "918 21st. St.",
		"City": "Texas City",
		"State": "TX",
		"Zip": "77590",
		"Region": "HOU-R",
		"Lat": "29.3934898",
		"Long": "-94.9250107"
	},
	{
		"Corp": "00269",
		"Location": "Austin 17",
		"Street Address": "10710 Research Blvd.",
		"City": "Austin",
		"State": "TX",
		"Zip": "78759",
		"Region": "CTEX-M",
		"Lat": "30.3985596",
		"Long": "-97.7465363"
	},
	{
		"Corp": "00270",
		"Location": "Corpus Christi 13",
		"Street Address": "5425 S. Padre Island",
		"City": "Corpus Christi",
		"State": "TX",
		"Zip": "78411",
		"Region": "Gulf-M",
		"Lat": "27.7120304",
		"Long": "-97.379631"
	},
	{
		"Corp": "00271",
		"Location": "West Columbia",
		"Street Address": "110 Brazos St.",
		"City": "West Columbia",
		"State": "TX",
		"Zip": "77486",
		"Region": "HOU-R",
		"Lat": "29.14464",
		"Long": "-95.6481171"
	},
	{
		"Corp": "00279",
		"Location": "Lake Jackson",
		"Street Address": "410 Plantation",
		"City": "Lake Jackson",
		"State": "TX",
		"Zip": "77566",
		"Region": "HOU-R",
		"Lat": "29.0221195",
		"Long": "-95.434372"
	},
	{
		"Corp": "00283",
		"Location": "Baytown",
		"Street Address": "2200 N. Main",
		"City": "Baytown",
		"State": "TX",
		"Zip": "77520",
		"Region": "HOU-R",
		"Lat": "29.7476692",
		"Long": "-94.9637222"
	},
	{
		"Corp": "00284",
		"Location": "Marble Falls",
		"Street Address": "1503 Hwy. 1431 W",
		"City": "Marble Falls",
		"State": "TX",
		"Zip": "78654",
		"Region": "CTEX-R",
		"Lat": "30.5818291",
		"Long": "-98.2803421"
	},
	{
		"Corp": "00287",
		"Location": "Crockett",
		"Street Address": "1035 Loop 304 E.",
		"City": "Crockett",
		"State": "TX",
		"Zip": "75835",
		"Region": "HOU-R",
		"Lat": "31.3216705",
		"Long": "-95.4371567"
	},
	{
		"Corp": "00288",
		"Location": "Alvin",
		"Street Address": "207 E. South",
		"City": "Alvin",
		"State": "TX",
		"Zip": "77511",
		"Region": "HOU-R",
		"Lat": "29.4309406",
		"Long": "-95.2456207"
	},
	{
		"Corp": "00291",
		"Location": "Harlingen 02",
		"Street Address": "613 S. Expwy 83",
		"City": "Harlingen",
		"State": "TX",
		"Zip": "78550",
		"Region": "BORDER-R",
		"Lat": "26.1887608",
		"Long": "-97.7169037"
	},
	{
		"Corp": "00292",
		"Location": "Bay City",
		"Street Address": "2700 Seventh St.",
		"City": "Bay City",
		"State": "TX",
		"Zip": "77414",
		"Region": "HOU-R",
		"Lat": "28.9832306",
		"Long": "-95.9580307"
	},
	{
		"Corp": "00294",
		"Location": "San Antonio 19",
		"Street Address": "6580 FM 78",
		"City": "San Antonio",
		"State": "TX",
		"Zip": "78244",
		"Region": "SaWest-M",
		"Lat": "29.4813099",
		"Long": "-98.358757"
	},
	{
		"Corp": "00308",
		"Location": "Houston 03",
		"Street Address": "22618 Aldine Westfield",
		"City": "Houston",
		"State": "TX",
		"Zip": "77373",
		"Region": "HOU-M",
		"Lat": "30.0425606",
		"Long": "-95.3833237"
	},
	{
		"Corp": "00319",
		"Location": "Houston 08",
		"Street Address": "12900 Aldine Westfield",
		"City": "Houston",
		"State": "TX",
		"Zip": "77039",
		"Region": "HOU-M",
		"Lat": "29.9015408",
		"Long": "-95.3549194"
	},
	{
		"Corp": "00322",
		"Location": "Houston 12",
		"Street Address": "5417 S. Braeswood",
		"City": "Houston",
		"State": "TX",
		"Zip": "77096",
		"Region": "HOU-M",
		"Lat": "29.6764908",
		"Long": "-95.4774933"
	},
	{
		"Corp": "00332",
		"Location": "Brownsville 04",
		"Street Address": "2950 Southmost Blvd.",
		"City": "Brownsville",
		"State": "TX",
		"Zip": "78521",
		"Region": "BORDER-M",
		"Lat": "25.90588",
		"Long": "-97.462532"
	},
	{
		"Corp": "00333",
		"Location": "Aransas Pass",
		"Street Address": "101 E. Goodnight",
		"City": "Aransas Pass",
		"State": "TX",
		"Zip": "78336",
		"Region": "Gulf-R",
		"Lat": "27.9017696",
		"Long": "-97.1450729"
	},
	{
		"Corp": "00334",
		"Location": "McAllen 01",
		"Street Address": "3601 Pecan",
		"City": "Mcallen",
		"State": "TX",
		"Zip": "78501",
		"Region": "BORDER-M",
		"Lat": "26.2192898",
		"Long": "-98.2579575"
	},
	{
		"Corp": "00339",
		"Location": "Livingston",
		"Street Address": "1509 W. Church",
		"City": "Livingston",
		"State": "TX",
		"Zip": "77351",
		"Region": "HOU-R",
		"Lat": "30.7110806",
		"Long": "-94.9513779"
	},
	{
		"Corp": "00348",
		"Location": "Santa Fe",
		"Street Address": "4206 Warpath",
		"City": "Santa Fe",
		"State": "TX",
		"Zip": "77510",
		"Region": "HOU-R",
		"Lat": "29.3826695",
		"Long": "-95.1065903"
	},
	{
		"Corp": "00351",
		"Location": "Edna",
		"Street Address": "301 N. Wells St.",
		"City": "Edna",
		"State": "TX",
		"Zip": "77957",
		"Region": "Gulf-R",
		"Lat": "28.9954491",
		"Long": "-96.6524429"
	},
	{
		"Corp": "00352",
		"Location": "Houston 21",
		"Street Address": "5130 Cedar",
		"City": "Houston",
		"State": "TX",
		"Zip": "77401",
		"Region": "HOU-R",
		"Lat": "29.7070408",
		"Long": "-95.4693832"
	},
	{
		"Corp": "00355",
		"Location": "Yoakum",
		"Street Address": "201 W. Gonzales",
		"City": "Yoakum",
		"State": "TX",
		"Zip": "77995",
		"Region": "Gulf-R",
		"Lat": "29.2929001",
		"Long": "-97.1505203"
	},
	{
		"Corp": "00357",
		"Location": "Copperas Cove",
		"Street Address": "804 E. Hwy. 190",
		"City": "Copperas Cove",
		"State": "TX",
		"Zip": "76522",
		"Region": "CTEX-R",
		"Lat": "31.1185608",
		"Long": "-97.8986969"
	},
	{
		"Corp": "00368",
		"Location": "Cuero",
		"Street Address": "607 N. Esplanade",
		"City": "Cuero",
		"State": "TX",
		"Zip": "77954",
		"Region": "Gulf-R",
		"Lat": "29.0948296",
		"Long": "-97.2895432"
	},
	{
		"Corp": "00369",
		"Location": "Houston 25",
		"Street Address": "6102 Scott St.",
		"City": "Houston",
		"State": "TX",
		"Zip": "77021",
		"Region": "HOU-M",
		"Lat": "29.7021294",
		"Long": "-95.3596191"
	},
	{
		"Corp": "00370",
		"Location": "Mercedes",
		"Street Address": "209 N. Texas",
		"City": "Mercedes",
		"State": "TX",
		"Zip": "78570",
		"Region": "BORDER-R",
		"Lat": "26.1537495",
		"Long": "-97.9135819"
	},
	{
		"Corp": "00372",
		"Location": "San Antonio 01",
		"Street Address": "1955 Nacogdoches Rd.",
		"City": "San Antonio",
		"State": "TX",
		"Zip": "78209",
		"Region": "SaWest-M",
		"Lat": "29.5075207",
		"Long": "-98.4575729"
	},
	{
		"Corp": "00373",
		"Location": "Round Rock 02",
		"Street Address": "16900 N. RR620",
		"City": "Round Rock",
		"State": "TX",
		"Zip": "78664",
		"Region": "CTEX-R",
		"Lat": "30.5001392",
		"Long": "-97.7211685"
	},
	{
		"Corp": "00374",
		"Location": "Austin 19",
		"Street Address": "600 W. William Cannon",
		"City": "Austin",
		"State": "TX",
		"Zip": "78745",
		"Region": "CTEX-M",
		"Lat": "30.1969109",
		"Long": "-97.7869797"
	},
	{
		"Corp": "00377",
		"Location": "Austin 16",
		"Street Address": "13776 Hwy. 183 N",
		"City": "Austin",
		"State": "TX",
		"Zip": "78750",
		"Region": "CTEX-M",
		"Lat": "30.4642906",
		"Long": "-97.7955627"
	},
	{
		"Corp": "00379",
		"Location": "San Antonio 11",
		"Street Address": "400 Valley Hi Dr.",
		"City": "San Antonio",
		"State": "TX",
		"Zip": "78227",
		"Region": "SaWest-M",
		"Lat": "29.3789692",
		"Long": "-98.6449966"
	},
	{
		"Corp": "00380",
		"Location": "New Braunfels 01",
		"Street Address": "651 S. Walnut",
		"City": "New Braunfes",
		"State": "TX",
		"Zip": "78130",
		"Region": "SaWest-R",
		"Lat": "29.6888104",
		"Long": "-98.1270981"
	},
	{
		"Corp": "00381",
		"Location": "Harker Heights",
		"Street Address": "601 Indian Trail Dr.",
		"City": "Harker Heights",
		"State": "TX",
		"Zip": "76548",
		"Region": "CTEX-R",
		"Lat": "31.0789509",
		"Long": "-97.6552887"
	},
	{
		"Corp": "00382",
		"Location": "Midland",
		"Street Address": "3325 W. Wadley",
		"City": "Midland",
		"State": "TX",
		"Zip": "79707",
		"Region": "SaWest-R",
		"Lat": "32.0196495",
		"Long": "-102.1253967"
	},
	{
		"Corp": "00383",
		"Location": "Port Isabel",
		"Street Address": "1679 W. Hwy. 100",
		"City": "Port Isabel",
		"State": "TX",
		"Zip": "78578",
		"Region": "BORDER-R",
		"Lat": "26.0765801",
		"Long": "-97.233223"
	},
	{
		"Corp": "00384",
		"Location": "San Antonio 34",
		"Street Address": "6030 Montgomery Rd.",
		"City": "San Antonio",
		"State": "TX",
		"Zip": "78239",
		"Region": "SaWest-M",
		"Lat": "29.5108395",
		"Long": "-98.3701935"
	},
	{
		"Corp": "00385",
		"Location": "San Antonio 08",
		"Street Address": "300 Olmos Dr.",
		"City": "San Antonio",
		"State": "TX",
		"Zip": "78212",
		"Region": "SaWest-M",
		"Lat": "29.4708309",
		"Long": "-98.4904785"
	},
	{
		"Corp": "00387",
		"Location": "Odessa",
		"Street Address": "3801 E. 42nd St.",
		"City": "Odessa",
		"State": "TX",
		"Zip": "79762",
		"Region": "SaWest-R",
		"Lat": "31.8912907",
		"Long": "-102.3438034"
	},
	{
		"Corp": "00388",
		"Location": "Austin 20",
		"Street Address": "6001 Parmer Lane",
		"City": "Austin",
		"State": "TX",
		"Zip": "78727",
		"Region": "CTEX-M",
		"Lat": "30.4424992",
		"Long": "-97.7418213"
	},
	{
		"Corp": "00389",
		"Location": "San Antonio 24",
		"Street Address": "6000 West Ave.",
		"City": "San Antonio",
		"State": "TX",
		"Zip": "78213",
		"Region": "SaWest-M",
		"Lat": "29.5162602",
		"Long": "-98.5258637"
	},
	{
		"Corp": "00395",
		"Location": "San Antonio 17",
		"Street Address": "12777 I-10 W",
		"City": "San Antonio",
		"State": "TX",
		"Zip": "78230",
		"Region": "SaWest-M",
		"Lat": "29.5621491",
		"Long": "-98.5901108"
	},
	{
		"Corp": "00397",
		"Location": "San Antonio 12",
		"Street Address": "18140 San Pedro Ave.",
		"City": "San Antonio",
		"State": "TX",
		"Zip": "78232",
		"Region": "SaWest-M",
		"Lat": "29.6074009",
		"Long": "-98.468483"
	},
	{
		"Corp": "00398",
		"Location": "San Antonio 20",
		"Street Address": "2929 Thousand Oaks",
		"City": "San Antonio",
		"State": "TX",
		"Zip": "78247",
		"Region": "SaWest-M",
		"Lat": "29.5770092",
		"Long": "-98.4406433"
	},
	{
		"Corp": "00401",
		"Location": "Kingsville",
		"Street Address": "409 E. Kleberg",
		"City": "Kingsville",
		"State": "TX",
		"Zip": "78363",
		"Region": "Gulf-R",
		"Lat": "27.5166798",
		"Long": "-97.8646011"
	},
	{
		"Corp": "00403",
		"Location": "Gatesville",
		"Street Address": "1207 Main St.",
		"City": "Gatesville",
		"State": "TX",
		"Zip": "76528",
		"Region": "CTEX-R",
		"Lat": "31.4350891",
		"Long": "-97.7515488"
	},
	{
		"Corp": "00404",
		"Location": "Austin 21",
		"Street Address": "12400 Hwy. 71 W",
		"City": "Austin",
		"State": "TX",
		"Zip": "78738",
		"Region": "CTEX-M",
		"Lat": "30.3051891",
		"Long": "-97.9362335"
	},
	{
		"Corp": "00411",
		"Location": "Pleasanton",
		"Street Address": "219 W. Oaklawn",
		"City": "Pleasanton",
		"State": "TX",
		"Zip": "78064",
		"Region": "SaWest-R",
		"Lat": "28.9570503",
		"Long": "-98.4856262"
	},
	{
		"Corp": "00412",
		"Location": "Beeville",
		"Street Address": "100 E. Houston St.",
		"City": "Beeville",
		"State": "TX",
		"Zip": "78102",
		"Region": "Gulf-R",
		"Lat": "28.4011803",
		"Long": "-97.7475586"
	},
	{
		"Corp": "00413",
		"Location": "Corpus Christi 07",
		"Street Address": "3133 S. Alameda",
		"City": "Corpus Christi",
		"State": "TX",
		"Zip": "78404",
		"Region": "Gulf-M",
		"Lat": "27.7580299",
		"Long": "-97.3909683"
	},
	{
		"Corp": "00414",
		"Location": "Brenham",
		"Street Address": "2508 S. Day St.",
		"City": "Brenham",
		"State": "TX",
		"Zip": "77833",
		"Region": "HOU-R",
		"Lat": "30.1440296",
		"Long": "-96.3960266"
	},
	{
		"Corp": "00415",
		"Location": "San Antonio 26",
		"Street Address": "17460 IH 35 North",
		"City": "San Antonio",
		"State": "TX",
		"Zip": "78154",
		"Region": "SaWest-M",
		"Lat": "29.5966892",
		"Long": "-98.2820969"
	},
	{
		"Corp": "00416",
		"Location": "La Grange",
		"Street Address": "150 S. Jackson",
		"City": "La Grange",
		"State": "TX",
		"Zip": "78945",
		"Region": "CTEX-R",
		"Lat": "29.9074497",
		"Long": "-96.8719406"
	},
	{
		"Corp": "00417",
		"Location": "Gonzales",
		"Street Address": "424 Saint Matthew",
		"City": "Gonzales",
		"State": "TX",
		"Zip": "78629",
		"Region": "Gulf-R",
		"Lat": "29.4995098",
		"Long": "-97.4513168"
	},
	{
		"Corp": "00418",
		"Location": "Del Rio 02",
		"Street Address": "200 Ave. F",
		"City": "Del Rio",
		"State": "TX",
		"Zip": "78840",
		"Region": "BORDER-R",
		"Lat": "29.3659592",
		"Long": "-100.8981018"
	},
	{
		"Corp": "00419",
		"Location": "Eagle Pass 02",
		"Street Address": "2135 E. Main",
		"City": "Eagle Pass",
		"State": "TX",
		"Zip": "78852",
		"Region": "BORDER-R",
		"Lat": "28.7088394",
		"Long": "NULL"
	},
	{
		"Corp": "00420",
		"Location": "Austin 22",
		"Street Address": "4521 Westgate Blvd.",
		"City": "Austin",
		"State": "TX",
		"Zip": "78745",
		"Region": "CMarket-M",
		"Lat": "30.2316799",
		"Long": "-97.8004837"
	},
	{
		"Corp": "00421",
		"Location": "Alamo",
		"Street Address": "1211 E. Expwy. 83",
		"City": "Alamo",
		"State": "TX",
		"Zip": "78516",
		"Region": "BORDER-R",
		"Lat": "26.1840897",
		"Long": "-98.1254196"
	},
	{
		"Corp": "00423",
		"Location": "Waco 08",
		"Street Address": "1301 Wooded Acres",
		"City": "Waco",
		"State": "TX",
		"Zip": "76710",
		"Region": "CTEX-M",
		"Lat": "31.5328007",
		"Long": "-97.1892624"
	},
	{
		"Corp": "00424",
		"Location": "Hondo",
		"Street Address": "609 19th St.",
		"City": "Hondo",
		"State": "TX",
		"Zip": "78861",
		"Region": "BORDER-R",
		"Lat": "29.3478794",
		"Long": "-99.1350708"
	},
	{
		"Corp": "00425",
		"Location": "Austin 03",
		"Street Address": "1000 E. 41st. St.",
		"City": "Austin",
		"State": "TX",
		"Zip": "78751",
		"Region": "CTEX-M",
		"Lat": "30.2987595",
		"Long": "-97.7202301"
	},
	{
		"Corp": "00426",
		"Location": "Waxahachie",
		"Street Address": "800 N. Hwy. 77",
		"City": "Waxahachie",
		"State": "TX",
		"Zip": "75165",
		"Region": "CTEX-R",
		"Lat": "32.4107208",
		"Long": "-96.8419113"
	},
	{
		"Corp": "00427",
		"Location": "San Antonio 09",
		"Street Address": "2225 Pleasanton Rd.",
		"City": "San Antonio",
		"State": "TX",
		"Zip": "78221",
		"Region": "SaWest-M",
		"Lat": "29.3575001",
		"Long": "-98.5039215"
	},
	{
		"Corp": "00428",
		"Location": "Austin 23",
		"Street Address": "6900 Brodie Lane",
		"City": "Austin",
		"State": "TX",
		"Zip": "78745",
		"Region": "CTEX-M",
		"Lat": "30.2144699",
		"Long": "-97.8301392"
	},
	{
		"Corp": "00429",
		"Location": "Raymondville",
		"Street Address": "405 W. Hidalgo",
		"City": "Raymondvill",
		"State": "TX",
		"Zip": "78580",
		"Region": "BORDER-R",
		"Lat": "26.4818001",
		"Long": "-97.7861023"
	},
	{
		"Corp": "00430",
		"Location": "Lytle",
		"Street Address": "19565 IH 35 South",
		"City": "Lytle",
		"State": "TX",
		"Zip": "78052",
		"Region": "SaWest-R",
		"Lat": "29.2446709",
		"Long": "-98.7674866"
	},
	{
		"Corp": "00431",
		"Location": "Edinburgh 02",
		"Street Address": "2700 W. Freddy Gonzales",
		"City": "Edinburg",
		"State": "TX",
		"Zip": "78539",
		"Region": "BORDER-R",
		"Lat": "26.2909508",
		"Long": "-98.193573"
	},
	{
		"Corp": "00432",
		"Location": "Lampasas",
		"Street Address": "302 Key Ave.",
		"City": "Lampasas",
		"State": "TX",
		"Zip": "76550",
		"Region": "CTEX-R",
		"Lat": "31.0655193",
		"Long": "-98.1826935"
	},
	{
		"Corp": "00433",
		"Location": "Burnet",
		"Street Address": "105 S. Boundary",
		"City": "Burnet",
		"State": "TX",
		"Zip": "78611",
		"Region": "CTEX-R",
		"Lat": "30.7588501",
		"Long": "-98.2244721"
	},
	{
		"Corp": "00434",
		"Location": "Port Lavaca",
		"Street Address": "329 Plaza Mall",
		"City": "Port Lavaca",
		"State": "TX",
		"Zip": "77979",
		"Region": "Gulf-R",
		"Lat": "28.6209106",
		"Long": "-96.6410523"
	},
	{
		"Corp": "00435",
		"Location": "Houston 26",
		"Street Address": "1511 W. 18th St.",
		"City": "Houston",
		"State": "TX",
		"Zip": "77008",
		"Region": "HOU-M",
		"Lat": "29.8015595",
		"Long": "-95.4269333"
	},
	{
		"Corp": "00441",
		"Location": "Uvalde",
		"Street Address": "201 E. Main",
		"City": "Uvalde",
		"State": "TX",
		"Zip": "78801",
		"Region": "BORDER-R",
		"Lat": "29.2101498",
		"Long": "-99.7839508"
	},
	{
		"Corp": "00444",
		"Location": "San Antonio 21",
		"Street Address": "3323 S. E. Military",
		"City": "San Antonio",
		"State": "TX",
		"Zip": "78223",
		"Region": "SaWest-M",
		"Lat": "29.3521595",
		"Long": "-98.4307632"
	},
	{
		"Corp": "00445",
		"Location": "Lockhart",
		"Street Address": "403 S. Colorado",
		"City": "Lockhart",
		"State": "TX",
		"Zip": "78644",
		"Region": "CTEX-R",
		"Lat": "29.8821697",
		"Long": "-97.6698837"
	},
	{
		"Corp": "00446",
		"Location": "Brownsville 05",
		"Street Address": "2155 Paredes Line Rd",
		"City": "Brownsville",
		"State": "TX",
		"Zip": "78526",
		"Region": "BORDER-M",
		"Lat": "25.9505692",
		"Long": "-97.4871368"
	},
	{
		"Corp": "00447",
		"Location": "San Antonio 32",
		"Street Address": "11650 Bandera Rd.",
		"City": "San Antonio",
		"State": "TX",
		"Zip": "78250",
		"Region": "SaWest-M",
		"Lat": "29.5511894",
		"Long": "-98.6642227"
	},
	{
		"Corp": "00448",
		"Location": "Palmview",
		"Street Address": "6016 W. Expressway 83",
		"City": "Palmview",
		"State": "TX",
		"Zip": "78572",
		"Region": "BORDER-R",
		"Lat": "26.2330303",
		"Long": "-98.3680801"
	},
	{
		"Corp": "00449",
		"Location": "Laredo 07",
		"Street Address": "7811 Mcpherson Rd",
		"City": "Laredo",
		"State": "TX",
		"Zip": "0",
		"Region": "BORDER-M",
		"Lat": "27.5752792",
		"Long": "-99.4735031"
	},
	{
		"Corp": "00451",
		"Location": "Austin 24",
		"Street Address": "7301 FM 620 N",
		"City": "Austin",
		"State": "TX",
		"Zip": "78726",
		"Region": "CTEX-M",
		"Lat": "30.4054508",
		"Long": "-97.8529968"
	},
	{
		"Corp": "00455",
		"Location": "San Marcos 02",
		"Street Address": "200 W. Hopkins St.",
		"City": "San Marcos",
		"State": "TX",
		"Zip": "78666",
		"Region": "CTEX-R",
		"Lat": "29.8830109",
		"Long": "-97.9427567"
	},
	{
		"Corp": "00458",
		"Location": "Carthage",
		"Street Address": "419 Loop 436 W",
		"City": "Carthage",
		"State": "TX",
		"Zip": "75633",
		"Region": "HOU-R",
		"Lat": "32.1662903",
		"Long": "-94.3676529"
	},
	{
		"Corp": "00462",
		"Location": "Corpus Christi 02",
		"Street Address": "3033 S. Port St.",
		"City": "Corpus Christi",
		"State": "TX",
		"Zip": "78405",
		"Region": "Gulf-M",
		"Lat": "27.7659302",
		"Long": "-97.4203186"
	},
	{
		"Corp": "00463",
		"Location": "San Antonio 39",
		"Street Address": "1150 NW Loop 1604",
		"City": "San Antonio",
		"State": "TX",
		"Zip": "0",
		"Region": "SaWest-M",
		"Lat": "29.6080799",
		"Long": "-98.5110016"
	},
	{
		"Corp": "00464",
		"Location": "Luling",
		"Street Address": "320 E. Pierce",
		"City": "Luling",
		"State": "TX",
		"Zip": "78648",
		"Region": "CTEX-R",
		"Lat": "29.6809692",
		"Long": "-97.6527329"
	},
	{
		"Corp": "00465",
		"Location": "Austin 01",
		"Street Address": "2701 E. Seventh",
		"City": "Austin",
		"State": "TX",
		"Zip": "78702",
		"Region": "CTEX-M",
		"Lat": "30.2605496",
		"Long": "-97.7115707"
	},
	{
		"Corp": "00466",
		"Location": "San Antonio 03",
		"Street Address": "2715 W. Commerce",
		"City": "San Antonio",
		"State": "TX",
		"Zip": "0",
		"Region": "SaWest-M",
		"Lat": "29.4279995",
		"Long": "-98.5245285"
	},
	{
		"Corp": "00467",
		"Location": "Mexia",
		"Street Address": "104 N. Paris",
		"City": "Mexia",
		"State": "TX",
		"Zip": "76667",
		"Region": "CTEX-R",
		"Lat": "31.6804199",
		"Long": "-96.4815064"
	},
	{
		"Corp": "00471",
		"Location": "Houston 35",
		"Street Address": "14540 Memorial Dr.",
		"City": "Houston",
		"State": "TX",
		"Zip": "77079",
		"Region": "HOU-M",
		"Lat": "29.7702007",
		"Long": "-95.6038666"
	},
	{
		"Corp": "00472",
		"Location": "Houston 36",
		"Street Address": "2660 Fountainview",
		"City": "Houston",
		"State": "TX",
		"Zip": "77057",
		"Region": "HOU-M",
		"Lat": "29.7393608",
		"Long": "-95.4846115"
	},
	{
		"Corp": "00473",
		"Location": "Pasadena 03",
		"Street Address": "6210 Fairmont Pkwy.",
		"City": "Pasadena",
		"State": "TX",
		"Zip": "77505",
		"Region": "HOU-M",
		"Lat": "29.6496296",
		"Long": "-95.1451035"
	},
	{
		"Corp": "00474",
		"Location": "Houston 40",
		"Street Address": "4724 HWY 6",
		"City": "Missouri City",
		"State": "TX",
		"Zip": "77459",
		"Region": "HOU-R",
		"Lat": "29.5803204",
		"Long": "-95.5825272"
	},
	{
		"Corp": "00475",
		"Location": "Elgin",
		"Street Address": "1080 E. Hwy 290",
		"City": "Elgin",
		"State": "TX",
		"Zip": "78621",
		"Region": "CTEX-R",
		"Lat": "30.3162308",
		"Long": "-97.3116531"
	},
	{
		"Corp": "00476",
		"Location": "Austin 25",
		"Street Address": "500 Canyon Ridge Dr",
		"City": "Austin",
		"State": "TX",
		"Zip": "78753",
		"Region": "CTEX-M",
		"Lat": "30.4033699",
		"Long": "-97.672699"
	},
	{
		"Corp": "00477",
		"Location": "Buda",
		"Street Address": "15300 S IH 35",
		"City": "Buda",
		"State": "TX",
		"Zip": "78610",
		"Region": "CTEX-R",
		"Lat": "30.0746002",
		"Long": "-97.8256836"
	},
	{
		"Corp": "00479",
		"Location": "Pflugerville",
		"Street Address": "201 N. FM 685",
		"City": "Pflugerville",
		"State": "TX",
		"Zip": "78660",
		"Region": "CTEX-R",
		"Lat": "30.4375591",
		"Long": "-97.6132431"
	},
	{
		"Corp": "00480",
		"Location": "San Antonio 29",
		"Street Address": "9900 Wurzbach",
		"City": "San Antonio",
		"State": "TX",
		"Zip": "78230",
		"Region": "SaWest-M",
		"Lat": "29.5324097",
		"Long": "-98.5608673"
	},
	{
		"Corp": "00485",
		"Location": "Weslaco 02",
		"Street Address": "310 Westgate Dr.",
		"City": "Weslaco",
		"State": "TX",
		"Zip": "78596",
		"Region": "BORDER-R",
		"Lat": "26.1646195",
		"Long": "-98.0067596"
	},
	{
		"Corp": "00487",
		"Location": "Georgetown 02",
		"Street Address": "4500 FM 2338",
		"City": "Georgetown",
		"State": "TX",
		"Zip": "78628",
		"Region": "CTEX-R",
		"Lat": "30.6775494",
		"Long": "-97.7081833"
	},
	{
		"Corp": "00488",
		"Location": "Portland",
		"Street Address": "1600 Wildcat",
		"City": "Portland",
		"State": "TX",
		"Zip": "78374",
		"Region": "Gulf-R",
		"Lat": "27.8882809",
		"Long": "-97.3191071"
	},
	{
		"Corp": "00489",
		"Location": "Brownsville 02",
		"Street Address": "2250 Boca Chica Blvd",
		"City": "Brownsville",
		"State": "TX",
		"Zip": "78521",
		"Region": "BORDER-M",
		"Lat": "25.9219608",
		"Long": "-97.4872437"
	},
	{
		"Corp": "00491",
		"Location": "Houston Central Market",
		"Street Address": "3815 Westheimer",
		"City": "Houston",
		"State": "TX",
		"Zip": "77027",
		"Region": "CMarket-M",
		"Lat": "29.7416897",
		"Long": "-95.4420013"
	},
	{
		"Corp": "00492",
		"Location": "Houston 37",
		"Street Address": "1550 Fry Rd.",
		"City": "Katy",
		"State": "TX",
		"Zip": "77084",
		"Region": "HOU-M",
		"Lat": "29.7887402",
		"Long": "-95.7188263"
	},
	{
		"Corp": "00494",
		"Location": "San Antonio 40",
		"Street Address": "5780 W. Loop 1604",
		"City": "San Antonio",
		"State": "TX",
		"Zip": "78251",
		"Region": "SaWest-M",
		"Lat": "29.4935398",
		"Long": "-98.7048035"
	},
	{
		"Corp": "00495",
		"Location": "Round Rock 03",
		"Street Address": "603 Louis Henna",
		"City": "Round Rock",
		"State": "TX",
		"Zip": "78664",
		"Region": "CTEX-R",
		"Lat": "30.4836597",
		"Long": "-97.6572113"
	},
	{
		"Corp": "00497",
		"Location": "Houston 39",
		"Street Address": "1621 Mason Rd.",
		"City": "Katy",
		"State": "TX",
		"Zip": "77450",
		"Region": "HOU-R",
		"Lat": "29.7594605",
		"Long": "-95.7514038"
	},
	{
		"Corp": "00498",
		"Location": "Atascocita",
		"Street Address": "7405 FM 1960",
		"City": "Humble",
		"State": "TX",
		"Zip": "77346",
		"Region": "HOU-R",
		"Lat": "29.9983406",
		"Long": "-95.1652222"
	},
	{
		"Corp": "00540",
		"Location": "Houston 42",
		"Street Address": "3111 Woodridge",
		"City": "Houston",
		"State": "TX",
		"Zip": "77087",
		"Region": "HOU-M",
		"Lat": "29.6974392",
		"Long": "-95.2973099"
	},
	{
		"Corp": "00541",
		"Location": "Houston 43",
		"Street Address": "10100 Beechnut",
		"City": "Houston",
		"State": "TX",
		"Zip": "77072",
		"Region": "HOU-M",
		"Lat": "29.6898193",
		"Long": "-95.5595779"
	},
	{
		"Corp": "00543",
		"Location": "College Station",
		"Street Address": "1900 Texas Ave. S.",
		"City": "College Statio",
		"State": "TX",
		"Zip": "77840",
		"Region": "HOU-R",
		"Lat": "30.6138191",
		"Long": "-96.3175507"
	},
	{
		"Corp": "00544",
		"Location": "Bryan 03",
		"Street Address": "Villa Maria & Texas Ave.",
		"City": "Bryan",
		"State": "TX",
		"Zip": "77803",
		"Region": "HOU-R",
		"Lat": "30.66959",
		"Long": "-96.3746796"
	},
	{
		"Corp": "00545",
		"Location": "Fort Worth Central Market",
		"Street Address": "4651 West Freeway",
		"City": "Ft. Worth",
		"State": "TX",
		"Zip": "76107",
		"Region": "CMarket-M",
		"Lat": "32.7325287",
		"Long": "-97.3892822"
	},
	{
		"Corp": "00546",
		"Location": "Plano Central Market",
		"Street Address": "320 COIT ROAD",
		"City": "Plano",
		"State": "TX",
		"Zip": "75075",
		"Region": "CMarket-M",
		"Lat": "33.0030594",
		"Long": "-96.7676086"
	},
	{
		"Corp": "00551",
		"Location": "Houston 38",
		"Street Address": "11815 WESTHEIMER",
		"City": "Houston",
		"State": "TX",
		"Zip": "77077",
		"Region": "HOU-M",
		"Lat": "29.7363892",
		"Long": "-95.5875778"
	},
	{
		"Corp": "00552",
		"Location": "Dallas Central Market",
		"Street Address": "5750 EAST LOVERS LANE",
		"City": "Dallas",
		"State": "TX",
		"Zip": "75209",
		"Region": "CMarket-M",
		"Lat": "32.8511086",
		"Long": "-96.8140488"
	},
	{
		"Corp": "00553",
		"Location": "Houston 41",
		"Street Address": "4975 HWY 6",
		"City": "Houston",
		"State": "TX",
		"Zip": "77084",
		"Region": "HOU-M",
		"Lat": "29.8485394",
		"Long": "-95.6458435"
	},
	{
		"Corp": "00554",
		"Location": "Victoria 02",
		"Street Address": "1401 E. Rio Grade",
		"City": "Victoria",
		"State": "TX",
		"Zip": "77901",
		"Region": "Gulf-R",
		"Lat": "28.8060608",
		"Long": "-96.9904633"
	},
	{
		"Corp": "00555",
		"Location": "San Antonio 15",
		"Street Address": "Loop 1604 @ Kitty Hawk Rd",
		"City": "Universal City",
		"State": "TX",
		"Zip": "78148",
		"Region": "SaWest-M",
		"Lat": "29.5465393",
		"Long": "-98.3157196"
	},
	{
		"Corp": "00556",
		"Location": "San Antonio 05",
		"Street Address": "2118 Fredericksburg",
		"City": "San Antonio",
		"State": "TX",
		"Zip": "78201",
		"Region": "SaWest-M",
		"Lat": "29.4649296",
		"Long": "-98.5263138"
	},
	{
		"Corp": "00557",
		"Location": "Waco 07",
		"Street Address": "801 N. IH-35",
		"City": "Bellmead",
		"State": "TX",
		"Zip": "76710",
		"Region": "CTEX-M",
		"Lat": "31.5379601",
		"Long": "-97.1654663"
	},
	{
		"Corp": "00558",
		"Location": "Friendswood",
		"Street Address": "701 W. Parkwood",
		"City": "Friendswood",
		"State": "TX",
		"Zip": "77546",
		"Region": "HOU-R",
		"Lat": "29.5056706",
		"Long": "-95.1922836"
	},
	{
		"Corp": "00561",
		"Location": "Fredericksburg",
		"Street Address": "401 S. Adam",
		"City": "Fredericksburg",
		"State": "TX",
		"Zip": "78624",
		"Region": "SaWest-R",
		"Lat": "30.2719193",
		"Long": "-98.8750534"
	},
	{
		"Corp": "00562",
		"Location": "Rockport",
		"Street Address": "1409 Hwy 35 North Business",
		"City": "Rockport",
		"State": "TX",
		"Zip": "78382",
		"Region": "Gulf-R",
		"Lat": "28.0380306",
		"Long": "-97.0425797"
	},
	{
		"Corp": "00563",
		"Location": "Riverpark",
		"Street Address": "19900 S.W. Freeway",
		"City": "Sugar Land",
		"State": "TX",
		"Zip": "77479",
		"Region": "HOU-R",
		"Lat": "29.5911903",
		"Long": "-95.6340027"
	},
	{
		"Corp": "00564",
		"Location": "Woodlands 01",
		"Street Address": "130 Sawdust Rd.",
		"City": "Spring",
		"State": "TX",
		"Zip": "77380",
		"Region": "HOU-R",
		"Lat": "30.126751",
		"Long": "-95.4450607"
	},
	{
		"Corp": "00566",
		"Location": "Leon Springs",
		"Street Address": "24165 W IH-10",
		"City": "Boerne",
		"State": "TX",
		"Zip": "78255",
		"Region": "SaWest-R",
		"Lat": "29.6644592",
		"Long": "-98.6315384"
	},
	{
		"Corp": "00567",
		"Location": "San Antonio 43",
		"Street Address": "999 E. Basse Rd.",
		"City": "San Antonio",
		"State": "TX",
		"Zip": "78209",
		"Region": "SaWest-M",
		"Lat": "29.4922295",
		"Long": "-98.4800568"
	},
	{
		"Corp": "00568",
		"Location": "San Antonio 44",
		"Street Address": "12018 Perrin Beitel Rd.",
		"City": "San Antonio",
		"State": "TX",
		"Zip": "78217",
		"Region": "SaWest-M",
		"Lat": "29.5493107",
		"Long": "-98.4081726"
	},
	{
		"Corp": "00570",
		"Location": "Laredo 04",
		"Street Address": "210 W. Del Mar Blvd.",
		"City": "Laredo",
		"State": "TX",
		"Zip": "78041",
		"Region": "BORDER-M",
		"Lat": "27.5677509",
		"Long": "-99.4973908"
	},
	{
		"Corp": "00571",
		"Location": "Mission 02",
		"Street Address": "2206 N. Conway Ave.",
		"City": "Mission",
		"State": "TX",
		"Zip": "78572",
		"Region": "BORDER-R",
		"Lat": "26.2276306",
		"Long": "-98.3235931"
	},
	{
		"Corp": "00572",
		"Location": "Clear Lake",
		"Street Address": "16811 El Camino Real",
		"City": "Clear Lake",
		"State": "TX",
		"Zip": "77058",
		"Region": "HOU-R",
		"Lat": "29.5546703",
		"Long": "-95.119957"
	},
	{
		"Corp": "00574",
		"Location": "Tomball",
		"Street Address": "28520 Tomball Parkway",
		"City": "Tomball",
		"State": "TX",
		"Zip": "77375",
		"Region": "HOU-R",
		"Lat": "30.0788708",
		"Long": "-95.6292114"
	},
	{
		"Corp": "00575",
		"Location": "Houston 46",
		"Street Address": "Bellaire & Hwy 6",
		"City": "Houston",
		"State": "TX",
		"Zip": "77007",
		"Region": "HOU-M",
		"Lat": "29.7644997",
		"Long": "-95.372551"
	},
	{
		"Corp": "00576",
		"Location": "Houston 47",
		"Street Address": "Stubner & Louetta",
		"City": "Spring",
		"State": "TX",
		"Zip": "77379",
		"Region": "HOU-M",
		"Lat": "30.0209007",
		"Long": "-95.5240784"
	},
	{
		"Corp": "00577",
		"Location": "Houston 48",
		"Street Address": "10251 Kempwood",
		"City": "Houston",
		"State": "TX",
		"Zip": "77043",
		"Region": "HOU-M",
		"Lat": "29.8227596",
		"Long": "-95.5472565"
	},
	{
		"Corp": "00578",
		"Location": "Kingwood",
		"Street Address": "4304 Kingwood Dr.",
		"City": "Houston",
		"State": "TX",
		"Zip": "77379",
		"Region": "HOU-M",
		"Lat": "30.0490494",
		"Long": "-95.1866837"
	},
	{
		"Corp": "00579",
		"Location": "Woodlands 02",
		"Street Address": "Indian Springs",
		"City": "Woodlands",
		"State": "TX",
		"Zip": "77381",
		"Region": "HOU-R",
		"Lat": "30.1659203",
		"Long": "-95.4614105"
	},
	{
		"Corp": "00580",
		"Location": "Austin 26",
		"Street Address": "FM 1431 @ Parmer Ln",
		"City": "Austin",
		"State": "TX",
		"Zip": "78613",
		"Region": "CTEX-R",
		"Lat": "30.5220108",
		"Long": "-97.8264771"
	},
	{
		"Corp": "00581",
		"Location": "Killeen 03",
		"Street Address": "700 E. Central Texas Expresswa",
		"City": "Killeen",
		"State": "TX",
		"Zip": "76541",
		"Region": "CTEX-R",
		"Lat": "31.0956898",
		"Long": "-97.7367172"
	},
	{
		"Corp": "00582",
		"Location": "Bastrop",
		"Street Address": "State Hwy. 71 & Hasler St.",
		"City": "Bastrop",
		"State": "TX",
		"Zip": "78602",
		"Region": "CTEX-R",
		"Lat": "30.1069202",
		"Long": "-97.3346405"
	},
	{
		"Corp": "00583",
		"Location": "Waco 05",
		"Street Address": "9100 Woodway Drive",
		"City": "Waco",
		"State": "TX",
		"Zip": "76712",
		"Region": "CTEX-M",
		"Lat": "31.4964809",
		"Long": "-97.2203217"
	},
	{
		"Corp": "00584",
		"Location": "El Campo",
		"Street Address": "306 North Mechanic",
		"City": "El Campo",
		"State": "TX",
		"Zip": "77437",
		"Region": "HOU-R",
		"Lat": "29.1977692",
		"Long": "-96.2706375"
	},
	{
		"Corp": "00585",
		"Location": "San Antonio 18",
		"Street Address": "1533 Austin Hwy.",
		"City": "San Antonio",
		"State": "TX",
		"Zip": "78218",
		"Region": "SaWest-M",
		"Lat": "29.4947605",
		"Long": "-98.4317093"
	},
	{
		"Corp": "00586",
		"Location": "Laredo 06",
		"Street Address": "2314 S. Zapata Hwy",
		"City": "Laredo",
		"State": "TX",
		"Zip": "78408",
		"Region": "BORDER-M",
		"Lat": "27.7966404",
		"Long": "-97.4155808"
	},
	{
		"Corp": "00587",
		"Location": "Kingsland",
		"Street Address": "215 Ranch Road 2900",
		"City": "Kingsland",
		"State": "TX",
		"Zip": "78639",
		"Region": "CTEX-R",
		"Lat": "30.6581593",
		"Long": "-98.4449768"
	},
	{
		"Corp": "00588",
		"Location": "Mission Convenience",
		"Street Address": "2206 N. Conway",
		"City": "Mission",
		"State": "TX",
		"Zip": "78572",
		"Region": "BORDER-R",
		"Lat": "26.2276306",
		"Long": "-98.3235931"
	},
	{
		"Corp": "00589",
		"Location": "Mid County",
		"Street Address": "4800 B Hwy 365",
		"City": "Port Arthur",
		"State": "TX",
		"Zip": "75642",
		"Region": "HOU-R",
		"Lat": "29.9638195",
		"Long": "-93.9761734"
	},
	{
		"Corp": "00590",
		"Location": "McAllen 02",
		"Street Address": "901 W. Trenton",
		"City": "Mc Allen",
		"State": "TX",
		"Zip": "78503",
		"Region": "BORDER-M",
		"Lat": "26.1853409",
		"Long": "-98.2320786"
	},
	{
		"Corp": "00591",
		"Location": "Round Rock 04",
		"Street Address": "Hwy 79 @ FM140",
		"City": "Round Rock",
		"State": "TX",
		"Zip": "78664",
		"Region": "CTEX-R",
		"Lat": "30.5094204",
		"Long": "-97.6847763"
	},
	{
		"Corp": "00592",
		"Location": "Leander",
		"Street Address": "651 N. US Hwy 183",
		"City": "Leander",
		"State": "TX",
		"Zip": "78641",
		"Region": "CTEX-R",
		"Lat": "30.5815792",
		"Long": "-97.8541336"
	},
	{
		"Corp": "00593",
		"Location": "Taylor",
		"Street Address": "100 Carlos G. Parker Blvd",
		"City": "Taylor",
		"State": "TX",
		"Zip": "76574",
		"Region": "CTEX-R",
		"Lat": "30.5532093",
		"Long": "-97.4137573"
	},
	{
		"Corp": "00594",
		"Location": "Woodlands 03",
		"Street Address": "10777 Kuykendahl Rd.",
		"City": "The Woodlands",
		"State": "TX",
		"Zip": "77379",
		"Region": "HOU-R",
		"Lat": "30.0575008",
		"Long": "-95.4955673"
	},
	{
		"Corp": "00595",
		"Location": "Conroe",
		"Street Address": "2108 N. Frazier",
		"City": "Conroe",
		"State": "TX",
		"Zip": "77301",
		"Region": "HOU-R",
		"Lat": "30.3346005",
		"Long": "-95.4671173"
	},
	{
		"Corp": "00596",
		"Location": "Houston 50",
		"Street Address": "6711 South Fry Road",
		"City": "Katy",
		"State": "TX",
		"Zip": "77494",
		"Region": "HOU-R",
		"Lat": "29.7166996",
		"Long": "-95.7790604"
	},
	{
		"Corp": "00599",
		"Location": "Houston 51",
		"Street Address": "5225 Buffalo Speedway",
		"City": "Houston",
		"State": "TX",
		"Zip": "77005",
		"Region": "HOU-M",
		"Lat": "29.7270107",
		"Long": "-95.4276886"
	},
	{
		"Corp": "00610",
		"Location": "Spring Market",
		"Street Address": "2121 FM 2920",
		"City": "Spring",
		"State": "TX",
		"Zip": "77388",
		"Region": "HOU-M",
		"Lat": "30.0701809",
		"Long": "-95.4477081"
	},
	{
		"Corp": "00611",
		"Location": "Dripping Springs",
		"Street Address": "598 E. Hwy US 290",
		"City": "Dripping Springs",
		"State": "TX",
		"Zip": "78620",
		"Region": "CTEX-R",
		"Lat": "30.1916504",
		"Long": "-98.0776062"
	},
	{
		"Corp": "00612",
		"Location": "LaVernia",
		"Street Address": "14414 US. Hwy 87 West",
		"City": "LaVernia",
		"State": "TX",
		"Zip": "78121",
		"Region": "SaWest-R",
		"Lat": "29.3576603",
		"Long": "-98.139473"
	},
	{
		"Corp": "00613",
		"Location": "San Antonio 27",
		"Street Address": "8219 Marbach",
		"City": "San Antonio",
		"State": "TX",
		"Zip": "78227",
		"Region": "SaWest-M",
		"Lat": "29.4178257",
		"Long": "-98.6509399"
	},
	{
		"Corp": "00614",
		"Location": "Summerwood",
		"Street Address": "12680 W. Lake Houston Parkway",
		"City": "Houston",
		"State": "TX",
		"Zip": "77044",
		"Region": "HOU-M",
		"Lat": "29.9244194",
		"Long": "-95.1928864"
	},
	{
		"Corp": "00615",
		"Location": "Katy 02",
		"Street Address": "25675 Nelson Way",
		"City": "Katy",
		"State": "TX",
		"Zip": "77494",
		"Region": "HOU-R",
		"Lat": "29.7943897",
		"Long": "-95.8029785"
	},
	{
		"Corp": "00616",
		"Location": "Joe V's Smart Shop 01",
		"Street Address": "12035 Antoine Drive",
		"City": "Houston",
		"State": "TX",
		"Zip": "77066",
		"Region": "HOU-M",
		"Lat": "29.9592629",
		"Long": "-95.4810181"
	},
	{
		"Corp": "00617",
		"Location": "Lufkin",
		"Street Address": "111 North Timberland",
		"City": "Lufkin",
		"State": "TX",
		"Zip": "75901",
		"Region": "HOU-R",
		"Lat": "31.3366604",
		"Long": "-94.7176971"
	},
	{
		"Corp": "00618",
		"Location": "San Antonio 23",
		"Street Address": "5910 Babcock",
		"City": "San Antonio",
		"State": "TX",
		"Zip": "78240",
		"Region": "SaWest-M",
		"Lat": "29.5278244",
		"Long": "-98.6019058"
	},
	{
		"Corp": "00619",
		"Location": "College Station 02",
		"Street Address": "949 William D. Fitch Parkway",
		"City": "College Station",
		"State": "TX",
		"Zip": "77845",
		"Region": "HOU-R",
		"Lat": "30.5708046",
		"Long": "-96.2445679"
	},
	{
		"Corp": "00620",
		"Location": "Pearsall",
		"Street Address": "225 South IH 35",
		"City": "Pearsall",
		"State": "TX",
		"Zip": "78061",
		"Region": "BORDER-R",
		"Lat": "28.8965435",
		"Long": "-99.1161118"
	},
	{
		"Corp": "00622",
		"Location": "Bulverde",
		"Street Address": "20725 Hwy 46 West",
		"City": "Spring Branch",
		"State": "TX",
		"Zip": "78070",
		"Region": "SaWest-R",
		"Lat": "29.7987099",
		"Long": "-98.4302292"
	},
	{
		"Corp": "00626",
		"Location": "San Benito",
		"Street Address": "1095 West Business Hwy 77",
		"City": "San Benito",
		"State": "TX",
		"Zip": "78586",
		"Region": "BORDER-R",
		"Lat": "26.1221008",
		"Long": "-97.6324005"
	},
	{
		"Corp": "00640",
		"Location": "Joe V's Smart Shop 02",
		"Street Address": "5607 Uvalde Rd",
		"City": "Houston",
		"State": "TX",
		"Zip": "77049",
		"Region": "HOU-M",
		"Lat": "29.8072796",
		"Long": "-95.1823731"
	},
	{
		"Corp": "00643",
		"Location": "Corpus Christi 01",
		"Street Address": "4444 Kostoryz",
		"City": "Corpus Christi",
		"State": "TX",
		"Zip": "78415",
		"Region": "Gulf-M",
		"Lat": "27.7390289",
		"Long": "-97.4065094"
	},
	{
		"Corp": "00646",
		"Location": "Joe V's 290",
		"Street Address": "3500 Garth Road",
		"City": "Baytown",
		"State": "TX",
		"Zip": "77521",
		"Region": "HOU-M",
		"Lat": "29.7603207",
		"Long": "-94.9756165"
	},
	{
		"Corp": "FAC01",
		"Location": "Austin Training Center",
		"Street Address": "6406 North I-35 Suite 2150",
		"City": "Austin",
		"State": "TX",
		"Zip": "78752",
		"Region": "Admin",
		"Lat": "30.3249817",
		"Long": "-97.7070923"
	},
	{
		"Corp": "FAC02",
		"Location": "Central Texas Regional Office",
		"Street Address": "6929 Airport Blvd Suite 176",
		"City": "Austin",
		"State": "TX",
		"Zip": "78752",
		"Region": "Admin",
		"Lat": "30.3371506",
		"Long": "-97.7185516"
	},
	{
		"Corp": "FAC13",
		"Location": "Arsenal",
		"Street Address": "646 S. Main",
		"City": "San Antonio",
		"State": "TX",
		"Zip": "78204",
		"Region": "Admin",
		"Lat": "29.4177494",
		"Long": "-98.4958496"
	},
	{
		"Corp": "FAC15",
		"Location": "Root Candle",
		"Street Address": "537 S. Flores St.",
		"City": "San Antonio",
		"State": "TX",
		"Zip": "78204",
		"Region": "Admin",
		"Lat": "29.4187794",
		"Long": "-98.4971008"
	},
	{
		"Corp": "FAC18",
		"Location": "HEB FCU SARSC",
		"Street Address": "5600 Business Park",
		"City": "San Antonio",
		"State": "TX",
		"Zip": "78218",
		"Region": "Admin",
		"Lat": "29.4782276",
		"Long": "-98.393486"
	},
	{
		"Corp": "FAC19",
		"Location": "HEB FCU Blanco",
		"Street Address": "1100 Nw Loop 410 At Blanco",
		"City": "San Antonio",
		"State": "TX",
		"Zip": "78213",
		"Region": "Admin",
		"Lat": "29.5123005",
		"Long": "-98.5235977"
	},
	{
		"Corp": "FAC20",
		"Location": "Fred Rd",
		"Street Address": "3485 Fredericksburg Road",
		"City": "San Antonio",
		"State": "TX",
		"Zip": "78201",
		"Region": "Admin",
		"Lat": "29.4760399",
		"Long": "-98.5375671"
	},
	{
		"Corp": "FAC24",
		"Location": "HEB Construction Quintana",
		"Street Address": "946 Quintana Rd",
		"City": "San Antonio",
		"State": "TX",
		"Zip": "78211",
		"Region": "Admin",
		"Lat": "29.3800697",
		"Long": "-98.5515213"
	},
	{
		"Corp": "FAC25",
		"Location": "SARSC Rx Warehouse",
		"Street Address": "6520 Fratt Road",
		"City": "San Antonio",
		"State": "TX",
		"Zip": "78218",
		"Region": "Admin",
		"Lat": "29.4869461",
		"Long": "-98.3926849"
	},
	{
		"Corp": "FAC28",
		"Location": "Environmental Affairs",
		"Street Address": "5105 Rittiman Road",
		"City": "San Antonio",
		"State": "TX",
		"Zip": "78218",
		"Region": "Admin",
		"Lat": "29.4841061",
		"Long": "-98.3899536"
	},
	{
		"Corp": "FAC31",
		"Location": "San Antonio Retail Support Center",
		"Street Address": "4710 N. Pan Am ExpressWay",
		"City": "San Antonio",
		"State": "TX",
		"Zip": "78218",
		"Region": "Admin",
		"Lat": "29.4582806",
		"Long": "-98.4117279"
	},
	{
		"Corp": "FAC32",
		"Location": "Shelf Edge Warehouse",
		"Street Address": "359 S Ww White Rd",
		"City": "San Antonio",
		"State": "TX",
		"Zip": "78220",
		"Region": "Admin",
		"Lat": "29.4256496",
		"Long": "-98.4055557"
	},
	{
		"Corp": "FAC33",
		"Location": "SARSC Seasonal",
		"Street Address": "4300 Industry Park Drive",
		"City": "San Antonio",
		"State": "TX",
		"Zip": "78218",
		"Region": "Admin",
		"Lat": "29.4699192",
		"Long": "-98.402359"
	},
	{
		"Corp": "FAC34",
		"Location": "Blossom",
		"Street Address": "11843 Starcrest Drive",
		"City": "San Antonio",
		"State": "TX",
		"Zip": "78247",
		"Region": "Admin",
		"Lat": "29.5482502",
		"Long": "-98.4620056"
	},
	{
		"Corp": "FAC36",
		"Location": "San Marcos Warehouse",
		"Street Address": "2301 Hunter Rd.",
		"City": "San Marcos",
		"State": "TX",
		"Zip": "78666",
		"Region": "Admin",
		"Lat": "29.8601093",
		"Long": "-97.966568"
	},
	{
		"Corp": "FAC43",
		"Location": "Whse 200",
		"Street Address": "15103 Huebner Rd",
		"City": "San Antonio",
		"State": "TX",
		"Zip": "78231",
		"Region": "Admin",
		"Lat": "29.5796509",
		"Long": "-98.5403519"
	},
	{
		"Corp": "FAC44",
		"Location": "Houston Regional Office Woodlands",
		"Street Address": "425 Sawdust Rd",
		"City": "Spring",
		"State": "TX",
		"Zip": "77380",
		"Region": "Admin",
		"Lat": "30.1265907",
		"Long": "-95.4497681"
	},
	{
		"Corp": "FAC48",
		"Location": "Kelly Mock",
		"Street Address": "601 Raymond Medina",
		"City": "San Antonio",
		"State": "TX",
		"Zip": "78226",
		"Region": "Admin",
		"Lat": "29.393013",
		"Long": "-98.5641632"
	},
	{
		"Corp": "FAC50",
		"Location": "Houston Regional Office Windfern",
		"Street Address": "4301 Windfern Rd",
		"City": "Houston",
		"State": "TX",
		"Zip": "77041",
		"Region": "Admin",
		"Lat": "29.8327103",
		"Long": "-95.5369186"
	},
	{
		"Corp": "FAC54",
		"Location": "Cypress Tower",
		"Street Address": "1222 N. Main Ave",
		"City": "San Antonio",
		"State": "TX",
		"Zip": "78212",
		"Region": "Admin",
		"Lat": "29.4398041",
		"Long": "-98.4941635"
	},
	{
		"Corp": "FAC57",
		"Location": "Airport Hangar",
		"Street Address": "900 Skyplace",
		"City": "San Antonio",
		"State": "TX",
		"Zip": "78216",
		"Region": "Admin",
		"Lat": "29.5454903",
		"Long": "-98.4791412"
	},
	{
		"Corp": "FAC59",
		"Location": "Dallas CM Office",
		"Street Address": "3890 Northwest Hwy Suite 300",
		"City": "Dallas",
		"State": "TX",
		"Zip": "75220",
		"Region": "Admin",
		"Lat": "32.86232",
		"Long": "-96.8501968"
	},
	{
		"Corp": "FAC70",
		"Location": "Archives",
		"Street Address": "110 Broadway St.",
		"City": "San Antonio",
		"State": "TX",
		"Zip": "78205",
		"Region": "Admin",
		"Lat": "29.4270191",
		"Long": "-98.4878464"
	},
	{
		"Corp": "FAC71",
		"Location": "City Kitchen",
		"Street Address": "1930 Hormel Drive",
		"City": "San Antonio",
		"State": "TX",
		"Zip": "78218",
		"Region": "Admin",
		"Lat": "29.4485664",
		"Long": "-98.4325562"
	},
	{
		"Corp": "FAC72",
		"Location": "Gulf Coast Regional Office",
		"Street Address": "4428 Kostoryz Rd",
		"City": "Corpus Christi",
		"State": "TX",
		"Zip": "78415",
		"Region": "Admin",
		"Lat": "27.7392616",
		"Long": "-97.4063797"
	},
	{
		"Corp": "FAC73",
		"Location": "Harlingen Training Center",
		"Street Address": "509 South Hwy 83",
		"City": "Harlingen",
		"State": "TX",
		"Zip": "78550",
		"Region": "Admin",
		"Lat": "26.17799",
		"Long": "-97.7592087"
	},
	{
		"Corp": "FAC74",
		"Location": "Laredo District Office",
		"Street Address": "1301 Guadalupe",
		"City": "Laredo",
		"State": "TX",
		"Zip": "78040",
		"Region": "Admin",
		"Lat": "27.5065994",
		"Long": "-99.4834518"
	},
	{
		"Corp": "FAC75",
		"Location": "Oak Hill Closed Property",
		"Street Address": "7100 Highway 290 West",
		"City": "Austin",
		"State": "TX",
		"Zip": "78735",
		"Region": "Admin",
		"Lat": "30.2327747",
		"Long": "-97.87603"
	},
	{
		"Corp": "FAC76",
		"Location": "Riverside Closed Property",
		"Street Address": "1819 Pleasant Valley Rd S",
		"City": "Austin",
		"State": "TX",
		"Zip": "78741",
		"Region": "Admin",
		"Lat": "30.2355461",
		"Long": "-97.7216492"
	},
	{
		"Corp": "FAC78",
		"Location": "San Antonio 32 Strip Mall",
		"Street Address": "11600 Bandera Road",
		"City": "San Antonio",
		"State": "TX",
		"Zip": "78250",
		"Region": "Admin",
		"Lat": "29.5504246",
		"Long": "-98.6635819"
	},
	{
		"Corp": "FAC79",
		"Location": "Shephard Plaza",
		"Street Address": "3612 S. Shephard Dr",
		"City": "Houston",
		"State": "TX",
		"Zip": "77098",
		"Region": "Admin",
		"Lat": "29.7341805",
		"Long": "-95.4106522"
	},
	{
		"Corp": "FAC80",
		"Location": "Temple Warehouse",
		"Street Address": "4750 Wendland Rd",
		"City": "Temple",
		"State": "TX",
		"Zip": "76504",
		"Region": "Admin",
		"Lat": "31.1505299",
		"Long": "-97.3575363"
	},
	{
		"Corp": "FAC81",
		"Location": "Weslaco DC",
		"Street Address": "1100 Panther Drive",
		"City": "San Antonio",
		"State": "TX",
		"Zip": "78596",
		"Region": "Admin",
		"Lat": "26.1660404",
		"Long": "-97.9988709"
	},
	{
		"Corp": "00055",
		"Location": "Southlake Central Market",
		"Street Address": "Southlake Caroll Blvd",
		"City": "Southlake",
		"State": "TX",
		"Zip": "76092",
		"Region": "CMarket-M",
		"Lat": "32.9410782",
		"Long": "-97.1335907"
	}
]